ORBCOMM FM37 [-]        
1 33064U 08031E   23352.35187285  .00001897  00000+0  30510-3 0  9998
2 33064  48.4427  54.3740 0006051 203.1551 264.1118 14.75573886833189
ORBCOMM FM40 [-]        
1 33065U 08031F   23352.39847306  .00002467  00000+0  37778-3 0  9997
2 33065  48.4440  44.8200 0007436 210.9954 244.5604 14.76710576833217
VESSELSAT 1 [-]         
1 37840U 11058C   23350.90389030  .00000345  00000+0  43938-4 0  9994
2 37840  19.9601 170.8328 0013720 276.8495  83.0348 14.11093367628763
ORBCOMM FM109 [+]       
1 40086U 14040A   23352.36857851  .00001038  00000+0  27040-3 0  9992
2 40086  47.0045  74.6632 0002532 299.6450  60.4183 14.56172813501315
ORBCOMM FM107 [+]       
1 40087U 14040B   23352.33403069  .00001043  00000+0  27154-3 0  9990
2 40087  47.0063  75.7674 0002436 271.8995  88.1611 14.56166352501384
ORBCOMM FM106 [-]       
1 40088U 14040C   23351.97753826  .00001576  00000+0  31498-3 0  9996
2 40088  47.0623 301.1510 0017832  47.3666 312.8724 14.66354075503082
ORBCOMM FM111 [-]       
1 40089U 14040D   23351.73755783  .00001982  00000+0  28039-3 0  9993
2 40089  47.0044 220.1296 0032710 102.3088 258.1472 14.80587922508951
ORBCOMM FM104 [-]       
1 40090U 14040E   23352.43556617  .00000949  00000+0  25806-3 0  9999
2 40090  47.0054 102.6274 0018086 230.4819 129.4467 14.54704229500968
